[{"OBJECT_NAME":"STARLINK-32853","OBJECT_ID":"2025-018N","EPOCH":"2026-03-09T21:29:10.648896","MEAN_MOTION":15.30216581,"ECCENTRICITY":0.00010115,"INCLINATION":53.1589,"RA_OF_ASC_NODE":308.3713,"ARG_OF_PERICENTER":95.0655,"MEAN_ANOMALY":265.0461,"EPHEMERIS_TYPE":0,"CLASSIFICATION_TYPE":"U","NORAD_CAT_ID":62818,"ELEMENT_SET_NO":999,"REV_AT_EPOCH":6321,"BSTAR":0.0010161491,"MEAN_MOTION_DOT":0.00029873,"MEAN_MOTION_DDOT":0},{"OBJECT_NAME":"KUIPER-00184","OBJECT_ID":"2025-301G","EPOCH":"2026-03-09T22:00:01.999584","MEAN_MOTION":15.32782365,"ECCENTRICITY":0.00116958,"INCLINATION":51.8667,"RA_OF_ASC_NODE":64.5953,"ARG_OF_PERICENTER":53.2996,"MEAN_ANOMALY":333.7065,"EPHEMERIS_TYPE":0,"CLASSIFICATION_TYPE":"U","NORAD_CAT_ID":67139,"ELEMENT_SET_NO":999,"REV_AT_EPOCH":554,"BSTAR":-0.036844053,"MEAN_MOTION_DOT":-0.01088594,"MEAN_MOTION_DDOT":0}]
